[
    {
        "Altitude(m)": 624792.737860647,
        "Argument of Periapsis(deg)": 0.0,
        "Eccentricity": 0.0,
        "Inclination(deg)": 60.0,
        "Latitude(deg)": -59.14698385436724,
        "Longitude(deg)": 104.02637542375636,
        "Mean Anomaly(deg)": -98.18180000000004,
        "RAAN(deg)": 310.0,
        "Satellite Name": "Test1 1380",
        "Satellite Number": 1380,
        "Semi-Major Axis(m)": 6980739.136638005,
        "Time(s)": 0
    },
    {
        "Altitude(m)": 624842.1300990036,
        "Argument of Periapsis(deg)": 0.00010418945913296404,
        "Eccentricity": 0.0,
        "Inclination(deg)": 60.0,
        "Latitude(deg)": -59.289067789988486,
        "Longitude(deg)": 105.15587591090984,
        "Mean Anomaly(deg)": -97.56169385453819,
        "RAAN(deg)": 309.99957995086027,
        "Satellite Name": "Test1 1380",
        "Satellite Number": 1380,
        "Semi-Major Axis(m)": 6980739.136638005,
        "Time(s)": 10
    }
]